OBJECT_NAME,OBJECT_ID,EPOCH,MEAN_MOTION,ECCENTRICITY,INCLINATION,RA_OF_ASC_NODE,ARG_OF_PERICENTER,MEAN_ANOMALY,EPHEMERIS_TYPE,CLASSIFICATION_TYPE,NORAD_CAT_ID,ELEMENT_SET_NO,REV_AT_EPOCH,BSTAR,MEAN_MOTION_DOT,MEAN_MOTION_DDOT
TIANMU-1 20,2023-208B,2026-06-07T06:29:33.899136,15.32615571,.00069226,97.4435,275.1469,11.5865,348.5535,0,U,58661,999,13590,.28883919E-3,.9025E-4,0
TIANMU-1 21,2023-208C,2026-06-07T06:34:09.034752,15.34901308,.00067784,97.4493,277.7882,4.0290,356.1007,0,U,58662,999,13604,.30313491E-3,.10188E-3,0
TIANMU-1 22,2023-208D,2026-06-07T06:27:07.335360,15.30919116,.00041398,97.4489,274.4644,37.0679,323.0848,0,U,58663,999,13581,.28445628E-3,.8423E-4,0
TIANMU-1 15,2024-004A,2026-06-07T06:27:19.517760,15.26920689,.00076694,97.4675,344.4582,35.5879,324.5870,0,U,58700,999,13426,.24675907E-3,.6454E-4,0
TIANMU-1 16,2024-004B,2026-06-06T14:25:24.037824,15.26640801,.0006811,97.4620,343.0390,42.2242,317.9519,0,U,58701,999,13416,.31551E-3,.8203E-4,0
TIANMU-1 17,2024-004C,2026-06-07T07:22:41.051712,15.26646987,.00064219,97.4649,344.2260,45.4905,314.6857,0,U,58702,999,13426,.23618868E-3,.6121E-4,0
TIANMU-1 18,2024-004D,2026-06-07T06:51:05.218848,15.26905181,.00049406,97.4667,344.4533,44.9125,315.2513,0,U,58703,999,13426,.23304485E-3,.6085E-4,0
INSAT-3DS,2024-033A,2026-06-07T01:50:25.863936,1.00273517,.0001348,0.0066,285.9640,147.0667,292.1373,0,U,58990,999,4696,0,-.142E-5,0
METEOR-M2 4,2024-039A,2026-06-07T06:21:53.466624,14.22428576,.00066975,98.7007,117.6882,189.6174,170.4877,0,U,59051,999,11785,.33148027E-4,.3E-6,0
GOES 19,2024-119A,2026-06-07T06:35:14.284032,1.00270376,.00006481,0.0438,135.5673,10.2432,133.4875,0,U,60133,999,686,0,-.234E-5,0
MTG-S1,2025-143A,2026-06-07T04:51:20.155968,1.00271642,.00010853,0.6122,336.6883,32.8456,315.4337,0,U,64723,999,331,0,-.18E-6,0
METOP-SGA1,2025-172A,2026-06-06T22:22:53.161536,14.21508129,.00009579,98.6647,217.8472,87.6053,272.5234,0,U,65159,999,4233,.40991754E-4,.46E-6,0
FENGYUN 3H,2025-219A,2026-06-07T02:31:39.146880,14.19918688,.00016537,98.6765,99.0706,84.8921,275.2444,0,U,65815,999,3595,.50878223E-4,.65E-6,0
