TIANMU-1 20             
1 58661U 23208B   26158.27053124  .00009025  00000+0  28884-3 0  9995
2 58661  97.4435 275.1469 0006922  11.5865 348.5535 15.32615571135906
TIANMU-1 21             
1 58662U 23208C   26158.27371568  .00010188  00000+0  30313-3 0  9993
2 58662  97.4493 277.7882 0006778   4.0290 356.1007 15.34901308136049
TIANMU-1 22             
1 58663U 23208D   26158.26883490  .00008423  00000+0  28446-3 0  9998
2 58663  97.4489 274.4644 0004139  37.0679 323.0848 15.30919116135813
TIANMU-1 15             
1 58700U 24004A   26158.26897590  .00006454  00000+0  24676-3 0  9994
2 58700  97.4675 344.4582 0007669  35.5879 324.5870 15.26920689134268
TIANMU-1 16             
1 58701U 24004B   26157.60097266  .00008203  00000+0  31551-3 0  9998
2 58701  97.4620 343.0390 0006811  42.2242 317.9519 15.26640801134168
TIANMU-1 17             
1 58702U 24004C   26158.30741958  .00006121  00000+0  23619-3 0  9994
2 58702  97.4649 344.2260 0006421  45.4905 314.6857 15.26646987134268
TIANMU-1 18             
1 58703U 24004D   26158.28547707  .00006085  00000+0  23304-3 0  9998
2 58703  97.4667 344.4533 0004940  44.9125 315.2513 15.26905181134266
INSAT-3DS               
1 58990U 24033A   26158.07668824 -.00000142  00000+0  00000+0 0  9992
2 58990   0.0066 285.9640 0001348 147.0667 292.1373  1.00273517 46964
METEOR-M2 4             
1 59051U 24039A   26158.26520216  .00000030  00000+0  33148-4 0  9999
2 59051  98.7007 117.6882 0006697 189.6174 170.4877 14.22428576117857
GOES 19                 
1 60133U 24119A   26158.27447088 -.00000234  00000+0  00000+0 0  9990
2 60133   0.0438 135.5673 0000648  10.2432 133.4875  1.00270376  6867
MTG-S1                  
1 64723U 25143A   26158.20231662 -.00000018  00000+0  00000+0 0  9999
2 64723   0.6122 336.6883 0001085  32.8456 315.4337  1.00271642  3310
METOP-SGA1              
1 65159U 25172A   26157.93255974  .00000046  00000+0  40992-4 0  9995
2 65159  98.6647 217.8472 0000957  87.6053 272.5234 14.21508129 42339
FENGYUN 3H              
1 65815U 25219A   26158.10531419  .00000065  00000+0  50878-4 0  9992
2 65815  98.6765  99.0706 0001654  84.8921 275.2444 14.19918688 35952
